{"fetched_at":"2026-07-10T18:07:59.515Z","source":"https://celestrak.org/NORAD/elements/gp.php?GROUP=stations&FORMAT=JSON","constellation":"tiangong","records":[{"OBJECT_NAME":"CSS (TIANHE)","OBJECT_ID":"2021-035A","EPOCH":"2026-07-10T05:09:52.576704","CLASSIFICATION_TYPE":"U","MEAN_MOTION":15.58015945,"ECCENTRICITY":0.0002669,"INCLINATION":41.4687,"RA_OF_ASC_NODE":182.0167,"ARG_OF_PERICENTER":284.9103,"MEAN_ANOMALY":75.144,"EPHEMERIS_TYPE":0,"NORAD_CAT_ID":48274,"ELEMENT_SET_NO":999,"REV_AT_EPOCH":29676,"BSTAR":0.000023426691,"MEAN_MOTION_DOT":0.00001478,"MEAN_MOTION_DDOT":0}]}
