CSS (TIANHE)            
1 48274U 21035A   26191.21519186  .00001478  00000+0  23427-4 0  9999
2 48274  41.4687 182.0167 0002669 284.9103  75.1440 15.58015945296766
